start=new Date('2021-11-21T00:00:00.000Z').valueOf();
sats=[{"ECCENTRICITY":"0.00013340","NORAD_CAT_ID":"45742","TIME_SYSTEM":"UTC","RCS_SIZE":"LARGE","RA_OF_ASC_NODE":"84.4739","OBJECT_TYPE":"PAYLOAD","TLE_LINE2":"2 45742  53.0546  84.4739 0001334  91.3172 268.7970 15.06397114 80673","EPOCH":"2021-11-20T17:20:17.014560","PERIAPSIS":"546.299","COUNTRY_CODE":"US","LAUNCH_DATE":"2020-06-13","MEAN_ANOMALY":"268.7970","REF_FRAME":"TEME","OBJECT_ID":"2020-038N","REV_AT_EPOCH":"8067","OBJECT_NAME":"STARLINK-1481","ARG_OF_PERICENTER":"91.3172","EPHEMERIS_TYPE":"0","MEAN_MOTION":"15.06397114","MEAN_MOTION_DOT":"-0.00001046","SEMIMAJOR_AXIS":"6925.357","DECAY_DATE":null,"GP_ID":"190145121","PERIOD":"95.592","CLASSIFICATION_TYPE":"U","SITE":"AFETR","TLE_LINE1":"1 45742U 20038N   21324.72241915 -.00001046  00000-0 -51374-4 0  9995","BSTAR":"-0.00005137400000","MEAN_ELEMENT_THEORY":"SGP4","INCLINATION":"53.0546","APOAPSIS":"548.146","FILE":"3220113","ELEMENT_SET_NO":"999","CENTER_NAME":"EARTH","MEAN_MOTION_DDOT":"0.0000000000000"},{"TIME_SYSTEM":"UTC","ECCENTRICITY":"0.00012790","NORAD_CAT_ID":"45743","OBJECT_TYPE":"PAYLOAD","RCS_SIZE":"LARGE","RA_OF_ASC_NODE":"84.3316","PERIAPSIS":"546.320","COUNTRY_CODE":"US","LAUNCH_DATE":"2020-06-13","TLE_LINE2":"2 45743  53.0552  84.3316 0001279  77.8999 282.2133 15.06402563 80537","EPOCH":"2021-11-20T18:08:02.229504","OBJECT_ID":"2020-038P","REV_AT_EPOCH":"8053","MEAN_ANOMALY":"282.2133","REF_FRAME":"TEME","MEAN_MOTION":"15.06402563","MEAN_MOTION_DOT":"0.00000874","SEMIMAJOR_AXIS":"6925.341","OBJECT_NAME":"STARLINK-1483","ARG_OF_PERICENTER":"77.8999","EPHEMERIS_TYPE":"0","PERIOD":"95.592","CLASSIFICATION_TYPE":"U","DECAY_DATE":null,"GP_ID":"190144205","MEAN_ELEMENT_THEORY":"SGP4","SITE":"AFETR","TLE_LINE1":"1 45743U 20038P   21324.75558136  .00000874  00000-0  77544-4 0  9998","BSTAR":"0.00007754400000","MEAN_MOTION_DDOT":"0.0000000000000","INCLINATION":"53.0552","APOAPSIS":"548.091","FILE":"3220068","ELEMENT_SET_NO":"999","CENTER_NAME":"EARTH"},{"TIME_SYSTEM":"UTC","NORAD_CAT_ID":"45744","ECCENTRICITY":"0.00011560","OBJECT_TYPE":"PAYLOAD","RA_OF_ASC_NODE":"85.7273","RCS_SIZE":"LARGE","LAUNCH_DATE":"2020-06-13","PERIAPSIS":"546.427","COUNTRY_CODE":"US","EPOCH":"2021-11-20T10:42:11.462400","TLE_LINE2":"2 45744  53.0554  85.7273 0001156  86.3368 273.7753 15.06395507 79525","REV_AT_EPOCH":"7952","OBJECT_ID":"2020-038Q","MEAN_ANOMALY":"273.7753","REF_FRAME":"TEME","MEAN_MOTION_DOT":"0.00000840","SEMIMAJOR_AXIS":"6925.362","MEAN_MOTION":"15.06395507","EPHEMERIS_TYPE":"0","OBJECT_NAME":"STARLINK-1500","ARG_OF_PERICENTER":"86.3368","CLASSIFICATION_TYPE":"U","PERIOD":"95.592","GP_ID":"190140908","DECAY_DATE":null,"MEAN_ELEMENT_THEORY":"SGP4","BSTAR":"0.00007525000000","SITE":"AFETR","TLE_LINE1":"1 45744U 20038Q   21324.44596600  .00000840  00000-0  75250-4 0  9998","MEAN_MOTION_DDOT":"0.0000000000000","FILE":"3220049","APOAPSIS":"548.028","ELEMENT_SET_NO":"999","CENTER_NAME":"EARTH","INCLINATION":"53.0554"},{"ECCENTRICITY":"0.00012900","NORAD_CAT_ID":"45745","TIME_SYSTEM":"UTC","RCS_SIZE":"LARGE","RA_OF_ASC_NODE":"85.7732","OBJECT_TYPE":"PAYLOAD","TLE_LINE2":"2 45745  53.0555  85.7732 0001290  88.8280 271.2857 15.06389627 79519","EPOCH":"2021-11-20T10:26:16.450368","COUNTRY_CODE":"US","PERIAPSIS":"546.352","LAUNCH_DATE":"2020-06-13","REF_FRAME":"TEME","MEAN_ANOMALY":"271.2857","OBJECT_ID":"2020-038R","REV_AT_EPOCH":"7951","ARG_OF_PERICENTER":"88.8280","OBJECT_NAME":"STARLINK-1503","EPHEMERIS_TYPE":"0","MEAN_MOTION":"15.06389627","SEMIMAJOR_AXIS":"6925.380","MEAN_MOTION_DOT":"-0.00000203","DECAY_DATE":null,"GP_ID":"190139157","PERIOD":"95.593","CLASSIFICATION_TYPE":"U","TLE_LINE1":"1 45745U 20038R   21324.43491262 -.00000203  00000-0  52484-5 0  9995","SITE":"AFETR","BSTAR":"0.00000524840000","MEAN_ELEMENT_THEORY":"SGP4","INCLINATION":"53.0555","ELEMENT_SET_NO":"999","CENTER_NAME":"EARTH","APOAPSIS":"548.139","FILE":"3220049","MEAN_MOTION_DDOT":"0.0000000000000"},{"CLASSIFICATION_TYPE":"U","PERIOD":"95.593","GP_ID":"190139407","DECAY_DATE":null,"SEMIMAJOR_AXIS":"6925.374","MEAN_MOTION_DOT":"-0.00000557","MEAN_MOTION":"15.06391670","EPHEMERIS_TYPE":"0","ARG_OF_PERICENTER":"82.9943","OBJECT_NAME":"STARLINK-1504","MEAN_MOTION_DDOT":"0.0000000000000","ELEMENT_SET_NO":"999","CENTER_NAME":"EARTH","FILE":"3220049","APOAPSIS":"548.336","INCLINATION":"53.0531","MEAN_ELEMENT_THEORY":"SGP4","BSTAR":"-0.00001847300000","TLE_LINE1":"1 45746U 20038S   21324.44965378 -.00000557  00000-0 -18473-4 0  9993","SITE":"AFETR","OBJECT_TYPE":"PAYLOAD","RA_OF_ASC_NODE":"85.7026","RCS_SIZE":"LARGE","TIME_SYSTEM":"UTC","NORAD_CAT_ID":"45746","ECCENTRICITY":"0.00015840","REV_AT_EPOCH":"7951","OBJECT_ID":"2020-038S","REF_FRAME":"TEME","MEAN_ANOMALY":"277.1226","LAUNCH_DATE":"2020-06-13","COUNTRY_CODE":"US","PERIAPSIS":"546.142","EPOCH":"2021-11-20T10:47:30.086592","TLE_LINE2":"2 45746  53.0531  85.7026 0001584  82.9943 277.1226 15.06391670 79513"},{"INCLINATION":"53.0550","ELEMENT_SET_NO":"999","CENTER_NAME":"EARTH","APOAPSIS":"548.238","FILE":"3220118","MEAN_MOTION_DDOT":"0.0000000000000","TLE_LINE1":"1 45747U 20038T   21324.65238970 -.00000881  00000-0 -40297-4 0  9997","SITE":"AFETR","BSTAR":"-0.00004029700000","MEAN_ELEMENT_THEORY":"SGP4","DECAY_DATE":null,"GP_ID":"190145165","PERIOD":"95.593","CLASSIFICATION_TYPE":"U","ARG_OF_PERICENTER":"82.6423","OBJECT_NAME":"STARLINK-1506","EPHEMERIS_TYPE":"0","MEAN_MOTION":"15.06389460","SEMIMAJOR_AXIS":"6925.381","MEAN_MOTION_DOT":"-0.00000881","REF_FRAME":"TEME","MEAN_ANOMALY":"277.4729","OBJECT_ID":"2020-038T","REV_AT_EPOCH":"8047","TLE_LINE2":"2 45747  53.0550  84.7910 0001433  82.6423 277.4729 15.06389460 80471","EPOCH":"2021-11-20T15:39:26.470080","COUNTRY_CODE":"US","PERIAPSIS":"546.253","LAUNCH_DATE":"2020-06-13","RCS_SIZE":"LARGE","RA_OF_ASC_NODE":"84.7910","OBJECT_TYPE":"PAYLOAD","ECCENTRICITY":"0.00014330","NORAD_CAT_ID":"45747","TIME_SYSTEM":"UTC"},{"OBJECT_ID":"2020-038U","REV_AT_EPOCH":"7951","REF_FRAME":"TEME","MEAN_ANOMALY":"269.1407","COUNTRY_CODE":"US","PERIAPSIS":"546.419","LAUNCH_DATE":"2020-06-13","TLE_LINE2":"2 45748  53.0539  85.7708 0001149  90.9714 269.1407 15.06399638 79516","EPOCH":"2021-11-20T10:35:31.540992","OBJECT_TYPE":"PAYLOAD","RCS_SIZE":"LARGE","RA_OF_ASC_NODE":"85.7708","TIME_SYSTEM":"UTC","ECCENTRICITY":"0.00011490","NORAD_CAT_ID":"45748","MEAN_MOTION_DDOT":"0.0000000000000","INCLINATION":"53.0539","ELEMENT_SET_NO":"999","CENTER_NAME":"EARTH","APOAPSIS":"548.010","FILE":"3220049","MEAN_ELEMENT_THEORY":"SGP4","TLE_LINE1":"1 45748U 20038U   21324.44133728 -.00000164  00000-0  78693-5 0  9995","SITE":"AFETR","BSTAR":"0.00000786930000","PERIOD":"95.592","CLASSIFICATION_TYPE":"U","DECAY_DATE":null,"GP_ID":"190140409","MEAN_MOTION":"15.06399638","SEMIMAJOR_AXIS":"6925.350","MEAN_MOTION_DOT":"-0.00000164","ARG_OF_PERICENTER":"90.9714","OBJECT_NAME":"STARLINK-1507","EPHEMERIS_TYPE":"0"},{"CLASSIFICATION_TYPE":"U","PERIOD":"95.592","GP_ID":"190139657","DECAY_DATE":null,"SEMIMAJOR_AXIS":"6925.353","MEAN_MOTION_DOT":"-0.00000152","MEAN_MOTION":"15.06398705","EPHEMERIS_TYPE":"0","ARG_OF_PERICENTER":"64.8196","OBJECT_NAME":"STARLINK-1391","MEAN_MOTION_DDOT":"0.0000000000000","ELEMENT_SET_NO":"999","CENTER_NAME":"EARTH","APOAPSIS":"548.068","FILE":"3220049","INCLINATION":"53.0549","MEAN_ELEMENT_THEORY":"SGP4","BSTAR":"0.00000870580000","TLE_LINE1":"1 45750U 20038W   21324.46992659 -.00000152  00000-0  87058-5 0  9998","SITE":"AFETR","OBJECT_TYPE":"PAYLOAD","RA_OF_ASC_NODE":"65.6205","RCS_SIZE":"LARGE","TIME_SYSTEM":"UTC","NORAD_CAT_ID":"45750","ECCENTRICITY":"0.00012280","REV_AT_EPOCH":"7981","OBJECT_ID":"2020-038W","REF_FRAME":"TEME","MEAN_ANOMALY":"295.2920","LAUNCH_DATE":"2020-06-13","COUNTRY_CODE":"US","PERIAPSIS":"546.367","EPOCH":"2021-11-20T11:16:41.657376","TLE_LINE2":"2 45750  53.0549  65.6205 0001228  64.8196 295.2920 15.06398705 79818"},{"MEAN_ANOMALY":"266.1765","REF_FRAME":"TEME","REV_AT_EPOCH":"7980","OBJECT_ID":"2020-038X","EPOCH":"2021-11-20T09:35:51.700416","TLE_LINE2":"2 45751  53.0541  65.9232 0001289  93.9371 266.1765 15.06391826 79809","LAUNCH_DATE":"2020-06-13","PERIAPSIS":"546.346","COUNTRY_CODE":"US","RA_OF_ASC_NODE":"65.9232","RCS_SIZE":"LARGE","OBJECT_TYPE":"PAYLOAD","NORAD_CAT_ID":"45751","ECCENTRICITY":"0.00012890","TIME_SYSTEM":"UTC","FILE":"3220049","APOAPSIS":"548.131","ELEMENT_SET_NO":"999","CENTER_NAME":"EARTH","INCLINATION":"53.0541","MEAN_MOTION_DDOT":"0.0000000000000","BSTAR":"0.00003067600000","SITE":"AFETR","TLE_LINE1":"1 45751U 20038X   21324.39990394  .00000175  00000-0  30676-4 0  9992","MEAN_ELEMENT_THEORY":"SGP4","GP_ID":"190139907","DECAY_DATE":null,"CLASSIFICATION_TYPE":"U","PERIOD":"95.593","EPHEMERIS_TYPE":"0","OBJECT_NAME":"STARLINK-1464","ARG_OF_PERICENTER":"93.9371","MEAN_MOTION_DOT":"0.00000175","SEMIMAJOR_AXIS":"6925.374","MEAN_MOTION":"15.06391826"},{"REV_AT_EPOCH":"8259","OBJECT_ID":"2020-038Y","REF_FRAME":"TEME","MEAN_ANOMALY":"51.1818","LAUNCH_DATE":"2020-06-13","COUNTRY_CODE":"US","PERIAPSIS":"363.999","EPOCH":"2021-11-20T03:14:47.695200","TLE_LINE2":"2 45752  53.0073 222.7730 0008284 308.8456  51.1818 15.66270500 82592","OBJECT_TYPE":"PAYLOAD","RA_OF_ASC_NODE":"222.7730","RCS_SIZE":"LARGE","TIME_SYSTEM":"UTC","NORAD_CAT_ID":"45752","ECCENTRICITY":"0.00082840","MEAN_MOTION_DDOT":"0.0000000000000","ELEMENT_SET_NO":"999","CENTER_NAME":"EARTH","APOAPSIS":"375.179","FILE":"3220049","INCLINATION":"53.0073","MEAN_ELEMENT_THEORY":"SGP4","BSTAR":"0.00010175000000","TLE_LINE1":"1 45752U 20038Y   21324.13527425  .00010173  00000-0  10175-3 0  9996","SITE":"AFETR","CLASSIFICATION_TYPE":"U","PERIOD":"91.938","GP_ID":"190140159","DECAY_DATE":null,"SEMIMAJOR_AXIS":"6747.724","MEAN_MOTION_DOT":"0.00010173","MEAN_MOTION":"15.66270500","EPHEMERIS_TYPE":"0","ARG_OF_PERICENTER":"308.8456","OBJECT_NAME":"STARLINK-1469"}];
